{"type":"Feature","properties":{"name":"helsinki-gravel"},"geometry":{"type":"LineString","coordinates":[[24.94845048,60.18367426],[24.94858316,60.18375959],[24.94871057,60.18380553],[24.94878273,60.18381139],[24.94894501,60.18380142],[24.94909085,60.18374585],[24.94923318,60.18368198],[24.94938925,60.1836492],[24.94947114,60.18365683],[24.94954381,60.1836767],[24.94967759,60.18373788],[24.94977742,60.1838207],[24.94984045,60.18385649],[24.94997665,60.18392212],[24.95003558,60.18395615],[24.95036398,60.18416394],[24.95047655,60.18418187],[24.95059197,60.18419671],[24.9508353,60.18421029],[24.95107954,60.18418766],[24.9513046,60.18411892],[24.95162638,60.18398498],[24.951835,60.18388775],[24.95194489,60.18383654],[24.95271577,60.18349858],[24.95328683,60.18324603],[24.95337392,60.18320781],[24.95381322,60.18302148],[24.95392403,60.18298175],[24.95428881,60.18284286],[24.95442837,60.18278662],[24.95470547,60.1826774],[24.95513085,60.18251689],[24.95528097,60.18245528],[24.95542908,60.18239954],[24.95569169,60.18232813],[24.95580903,60.18230718],[24.95590207,60.18226787],[24.95587173,60.18213082],[24.9557196,60.1820615],[24.95556579,60.18198908],[24.95538189,60.18191256],[24.95534627,60.1819092],[24.9553109,60.18189395],[24.95528977,60.1818823],[24.95527469,60.18188247],[24.9555134,60.18170837],[24.95554551,60.18169857],[24.95558155,60.18168616],[24.95521585,60.18194877],[24.95523194,60.1818652],[24.95524175,60.18185958],[24.95520319,60.18184852],[24.95512448,60.18182446],[24.95482173,60.18171282],[24.95467957,60.18166278],[24.95460883,60.18163537],[24.95446734,60.18157946],[24.95433382,60.18151676],[24.95426123,60.18149036],[24.95358976,60.18126137],[24.95277537,60.18096289],[24.9526115,60.18090053],[24.95228402,60.18077614],[24.95204598,60.18068997],[24.95159545,60.18054195],[24.95144659,60.18046785],[24.95136168,60.18043768],[24.95126219,60.180407],[24.95102364,60.18032016],[24.95091626,60.18026643],[24.95079422,60.18022226],[24.95028838,60.18003794],[24.95001102,60.17992856],[24.94992938,60.17989252],[24.9498013,60.17978984],[24.94975562,60.17958239],[24.94976132,60.17951215],[24.94978772,60.17937007],[24.94980717,60.17923529],[24.94979518,60.17909657],[24.94980994,60.17888317],[24.94984196,60.17867739],[24.94983114,60.1785484],[24.94982251,60.17843071],[24.94980189,60.17837749],[24.94982938,60.17829543],[24.94988856,60.17805152],[24.949921,60.17792386],[24.94992795,60.17789955],[24.94993516,60.17786125],[24.94993114,60.17787474],[24.94995452,60.17787885],[24.95041813,60.17785161],[24.95032601,60.17787533],[24.95024747,60.17798387],[24.95012451,60.17820088],[24.94985797,60.17836651],[24.94982888,60.17845946],[24.94982989,60.1786012],[24.94983978,60.17877412],[24.94983592,60.17882751],[24.94980424,60.17898652],[24.94978865,60.17907947],[24.94978152,60.17912457],[24.94976149,60.17921367],[24.94974665,60.17942087],[24.94975529,60.17946202],[24.94974783,60.17950469],[24.94976174,60.17958356],[24.94976006,60.17962874],[24.94975772,60.17971985],[24.94977071,60.17976528],[24.94978068,60.17998941],[24.94975277,60.18009938],[24.94974917,60.18014557],[24.94974934,60.18027968],[24.94973685,60.18041505],[24.94969544,60.18058034],[24.94966937,60.18083448],[24.94963182,60.18108032],[24.94960684,60.18111963],[24.94943175,60.18120973],[24.94929822,60.18125617],[24.94912715,60.18130898],[24.94908054,60.18132339],[24.94890821,60.18139648],[24.94878701,60.18145465],[24.9486928,60.18149698],[24.94844008,60.18159832],[24.94824369,60.18168055],[24.94820111,60.18169303],[24.94788813,60.18180669],[24.94777179,60.18185522],[24.94769351,60.18188557],[24.94761136,60.18191775],[24.94757281,60.18193041],[24.94725195,60.1820584],[24.94696973,60.18216443],[24.94669053,60.18228656],[24.94665063,60.18239049],[24.94667083,60.18241706],[24.94677871,60.18252268],[24.94680033,60.18255008],[24.94688733,60.18261965],[24.94692313,60.18264161],[24.94704835,60.18271722],[24.94707081,60.1827349],[24.9472087,60.18279383],[24.94729294,60.18282484]]}}
