{"type":"Feature","properties":{"name":"helsinki-gravel"},"geometry":{"type":"LineString","coordinates":[[24.94635182,60.18366714],[24.9465886,60.18374912],[24.94655809,60.18343278],[24.94669933,60.18335156],[24.94724574,60.18313531],[24.94749209,60.18306691],[24.94756593,60.18307362],[24.94780398,60.18315568],[24.94786668,60.18319943],[24.94806231,60.18331426],[24.94813532,60.18339464],[24.948153,60.18341434],[24.94818963,60.18345692],[24.94832098,60.18357083],[24.94843044,60.18365415],[24.94845048,60.18367426],[24.94858316,60.18375959],[24.94871057,60.18380553],[24.94878273,60.18381139],[24.94909085,60.18374585],[24.94923318,60.18368198],[24.94938925,60.1836492],[24.94954381,60.1836767],[24.94967759,60.18373788],[24.94977742,60.1838207],[24.94984045,60.18385649],[24.95003558,60.18395615],[24.95036398,60.18416394],[24.95047655,60.18418187],[24.9508353,60.18421029],[24.95095884,60.18420794],[24.95107954,60.18418766],[24.95162638,60.18398498],[24.951835,60.18388775],[24.95194489,60.18383654],[24.95328683,60.18324603],[24.95337392,60.18320781],[24.95381322,60.18302148],[24.95428881,60.18284286],[24.95442837,60.18278662],[24.95470547,60.1826774],[24.95528097,60.18245528],[24.95542908,60.18239954],[24.95569169,60.18232813],[24.95590207,60.18226787],[24.95594599,60.18216586],[24.95587173,60.18213082],[24.95556579,60.18198908],[24.95538189,60.18191256],[24.95534627,60.1819092],[24.9553109,60.18189395],[24.95527469,60.18188247],[24.9555134,60.18170837],[24.95554551,60.18169857],[24.95521585,60.18194877],[24.95523194,60.1818652],[24.95524175,60.18185958],[24.95512448,60.18182446],[24.95482173,60.18171282],[24.95467957,60.18166278],[24.95453658,60.18160913],[24.95446734,60.18157946],[24.95433382,60.18151676],[24.95358976,60.18126137],[24.95277537,60.18096289],[24.9526115,60.18090053],[24.95204598,60.18068997],[24.95159545,60.18054195],[24.95144659,60.18046785],[24.95126219,60.180407],[24.95102364,60.18032016],[24.95091626,60.18026643],[24.95028838,60.18003794],[24.95001102,60.17992856],[24.94992938,60.17989252],[24.9498013,60.17978984],[24.94975562,60.17958239],[24.94976132,60.17951215],[24.94978772,60.17937007],[24.94979518,60.17909657],[24.94980994,60.17888317],[24.94984196,60.17867739],[24.94982251,60.17843071],[24.94980189,60.17837749],[24.94982938,60.17829543],[24.949921,60.17792386],[24.94992795,60.17789955],[24.94993516,60.17786125],[24.94995452,60.17787885],[24.95041813,60.17785161],[24.95042483,60.17785169],[24.95024747,60.17798387],[24.95012451,60.17820088],[24.94985797,60.17836651],[24.94982989,60.1786012],[24.94983978,60.17877412],[24.94983592,60.17882751],[24.94978865,60.17907947],[24.94978152,60.17912457],[24.94976149,60.17921367],[24.94974665,60.17942087],[24.94974783,60.17950469],[24.94976174,60.17958356],[24.94976006,60.17962874],[24.94977071,60.17976528],[24.94979527,60.17995354],[24.94978068,60.17998941],[24.94974917,60.18014557],[24.94974934,60.18027968],[24.94973685,60.18041505],[24.94966937,60.18083448],[24.94963182,60.18108032],[24.94960684,60.18111963],[24.94929822,60.18125617],[24.94912715,60.18130898],[24.94908054,60.18132339],[24.94878701,60.18145465],[24.9486928,60.18149698],[24.94844008,60.18159832],[24.94820111,60.18169303],[24.94804412,60.18174483],[24.94788813,60.18180669],[24.94769351,60.18188557],[24.94761136,60.18191775],[24.94757281,60.18193041],[24.94725195,60.1820584],[24.94669053,60.18228656],[24.94665063,60.18239049],[24.94667083,60.18241706],[24.94680033,60.18255008],[24.94688733,60.18261965],[24.94692313,60.18264161],[24.94707081,60.1827349],[24.9472087,60.18279383],[24.94729294,60.18282484],[24.94758513,60.18299919],[24.94754054,60.18310983],[24.94716654,60.18319725],[24.94677426,60.18332005],[24.94673336,60.18333974],[24.94659095,60.1834156],[24.94635768,60.18353278],[24.94630387,60.18355859],[24.94631988,60.18354108],[24.94633857,60.18348358],[24.94634461,60.18347855],[24.94633153,60.18346799],[24.94607965,60.18363386],[24.94609231,60.18363562],[24.94610354,60.18363873]]}}
